{"fetched_at":"2026-03-29T16:36:15Z","count":15609,"tles":[{"name":"STARLINK-36109","line1":"1 66943U 25286U   26087.77920435  .00033047  00000+0  11227-2 0  9992","line2":"2 66943  53.1578 269.4836 0001199  92.2048 267.9091 15.30205112 18274","category":"Starlink"}]}